CCSDS_OMM_VERS = 2.0
CREATION_DATE  = 
ORIGINATOR     = 

OBJECT_NAME    = SPACEMOBILE-006
OBJECT_ID      = 2025-309A
CENTER_NAME    = EARTH
REF_FRAME      = TEME
TIME_SYSTEM    = UTC
MEAN_ELEMENT_THEORY = SGP/SGP4

EPOCH          = 2026-01-20T02:48:32.844384
MEAN_MOTION    = 15.17747762
ECCENTRICITY   = .00122349
INCLINATION    = 52.9969
RA_OF_ASC_NODE = 289.4295
ARG_OF_PERICENTER = 43.9483
MEAN_ANOMALY   = 316.2481

EPHEMERIS_TYPE = 0
CLASSIFICATION_TYPE = U
NORAD_CAT_ID   = 67232
ELEMENT_SET_NO = 999
REV_AT_EPOCH   = 410
BSTAR          = -.24112463E-4
MEAN_MOTION_DOT = -.815E-5
MEAN_MOTION_DDOT = 0

CCSDS_OMM_VERS = 2.0
CREATION_DATE  = 
ORIGINATOR     = 

OBJECT_NAME    = LVM3 R/B
OBJECT_ID      = 2025-309B
CENTER_NAME    = EARTH
REF_FRAME      = TEME
TIME_SYSTEM    = UTC
MEAN_ELEMENT_THEORY = SGP/SGP4

EPOCH          = 2026-01-20T22:32:47.953824
MEAN_MOTION    = 15.19798495
ECCENTRICITY   = .00121094
INCLINATION    = 52.9300
RA_OF_ASC_NODE = 285.0263
ARG_OF_PERICENTER = 70.4941
MEAN_ANOMALY   = 289.7359

EPHEMERIS_TYPE = 0
CLASSIFICATION_TYPE = U
NORAD_CAT_ID   = 67233
ELEMENT_SET_NO = 999
REV_AT_EPOCH   = 423
BSTAR          = .79802638E-3
MEAN_MOTION_DOT = .1705E-3
MEAN_MOTION_DDOT = 0

CCSDS_OMM_VERS = 2.0
CREATION_DATE  = 
ORIGINATOR     = 

OBJECT_NAME    = 2025-310A
OBJECT_ID      = 2025-310A
CENTER_NAME    = EARTH
REF_FRAME      = TEME
TIME_SYSTEM    = UTC
MEAN_ELEMENT_THEORY = SGP/SGP4

EPOCH          = 2026-01-20T23:03:44.072064
MEAN_MOTION    = 14.75704675
ECCENTRICITY   = .00023758
INCLINATION    = 97.9664
RA_OF_ASC_NODE = 30.3804
ARG_OF_PERICENTER = 162.4580
MEAN_ANOMALY   = 197.6712

EPHEMERIS_TYPE = 0
CLASSIFICATION_TYPE = U
NORAD_CAT_ID   = 67234
ELEMENT_SET_NO = 999
REV_AT_EPOCH   = 391
BSTAR          = .23373238E-4
MEAN_MOTION_DOT = .11E-5
MEAN_MOTION_DDOT = 0

CCSDS_OMM_VERS = 2.0
CREATION_DATE  = 
ORIGINATOR     = 

OBJECT_NAME    = SL-4 R/B
OBJECT_ID      = 2025-310B
CENTER_NAME    = EARTH
REF_FRAME      = TEME
TIME_SYSTEM    = UTC
MEAN_ELEMENT_THEORY = SGP/SGP4

EPOCH          = 2026-01-20T13:57:48.034080
MEAN_MOTION    = 15.62857820
ECCENTRICITY   = .02521595
INCLINATION    = 97.9588
RA_OF_ASC_NODE = 33.0565
ARG_OF_PERICENTER = 342.1536
MEAN_ANOMALY   = 17.0980

EPHEMERIS_TYPE = 0
CLASSIFICATION_TYPE = U
NORAD_CAT_ID   = 67235
ELEMENT_SET_NO = 999
REV_AT_EPOCH   = 404
BSTAR          = .85567289E-3
MEAN_MOTION_DOT = .445183E-2
MEAN_MOTION_DDOT = .2504801E-5

CCSDS_OMM_VERS = 2.0
CREATION_DATE  = 
ORIGINATOR     = 

OBJECT_NAME    = HULIANWANG DIGUI-128
OBJECT_ID      = 2025-311A
CENTER_NAME    = EARTH
REF_FRAME      = TEME
TIME_SYSTEM    = UTC
MEAN_ELEMENT_THEORY = SGP/SGP4

EPOCH          = 2026-01-19T22:49:48.688608
MEAN_MOTION    = 13.87303514
ECCENTRICITY   = .00002522
INCLINATION    = 50.0140
RA_OF_ASC_NODE = 296.2734
ARG_OF_PERICENTER = 253.4810
MEAN_ANOMALY   = 106.6060

EPHEMERIS_TYPE = 0
CLASSIFICATION_TYPE = U
NORAD_CAT_ID   = 67236
ELEMENT_SET_NO = 999
REV_AT_EPOCH   = 348
BSTAR          = .13468768E-3
MEAN_MOTION_DOT = .14E-6
MEAN_MOTION_DDOT = 0

CCSDS_OMM_VERS = 2.0
CREATION_DATE  = 
ORIGINATOR     = 

OBJECT_NAME    = HULIANWANG DIGUI-129
OBJECT_ID      = 2025-311B
CENTER_NAME    = EARTH
REF_FRAME      = TEME
TIME_SYSTEM    = UTC
MEAN_ELEMENT_THEORY = SGP/SGP4

EPOCH          = 2026-01-18T17:29:33.792576
MEAN_MOTION    = 13.88330463
ECCENTRICITY   = .00030278
INCLINATION    = 50.0108
RA_OF_ASC_NODE = 301.1467
ARG_OF_PERICENTER = 4.8681
MEAN_ANOMALY   = 355.2246

EPHEMERIS_TYPE = 0
CLASSIFICATION_TYPE = U
NORAD_CAT_ID   = 67237
ELEMENT_SET_NO = 999
REV_AT_EPOCH   = 331
BSTAR          = .10227442E-3
MEAN_MOTION_DOT = -.22E-6
MEAN_MOTION_DDOT = 0

CCSDS_OMM_VERS = 2.0
CREATION_DATE  = 
ORIGINATOR     = 

OBJECT_NAME    = HULIANWANG DIGUI-130
OBJECT_ID      = 2025-311C
CENTER_NAME    = EARTH
REF_FRAME      = TEME
TIME_SYSTEM    = UTC
MEAN_ELEMENT_THEORY = SGP/SGP4

EPOCH          = 2026-01-19T23:05:37.156704
MEAN_MOTION    = 13.86351500
ECCENTRICITY   = .00023102
INCLINATION    = 50.0087
RA_OF_ASC_NODE = 296.3440
ARG_OF_PERICENTER = 353.9164
MEAN_ANOMALY   = 6.1704

EPHEMERIS_TYPE = 0
CLASSIFICATION_TYPE = U
NORAD_CAT_ID   = 67238
ELEMENT_SET_NO = 999
REV_AT_EPOCH   = 348
BSTAR          = .14106257E-3
MEAN_MOTION_DOT = .19E-6
MEAN_MOTION_DDOT = 0

CCSDS_OMM_VERS = 2.0
CREATION_DATE  = 
ORIGINATOR     = 

OBJECT_NAME    = HULIANWANG DIGUI-131
OBJECT_ID      = 2025-311D
CENTER_NAME    = EARTH
REF_FRAME      = TEME
TIME_SYSTEM    = UTC
MEAN_ELEMENT_THEORY = SGP/SGP4

EPOCH          = 2026-01-19T21:26:54.377952
MEAN_MOTION    = 13.86313961
ECCENTRICITY   = .00049371
INCLINATION    = 50.0098
RA_OF_ASC_NODE = 296.6013
ARG_OF_PERICENTER = 198.8063
MEAN_ANOMALY   = 161.2652

EPHEMERIS_TYPE = 0
CLASSIFICATION_TYPE = U
NORAD_CAT_ID   = 67239
ELEMENT_SET_NO = 999
REV_AT_EPOCH   = 347
BSTAR          = .13166133E-3
MEAN_MOTION_DOT = .8E-7
MEAN_MOTION_DDOT = 0

CCSDS_OMM_VERS = 2.0
CREATION_DATE  = 
ORIGINATOR     = 

OBJECT_NAME    = HULIANWANG DIGUI-132
OBJECT_ID      = 2025-311E
CENTER_NAME    = EARTH
REF_FRAME      = TEME
TIME_SYSTEM    = UTC
MEAN_ELEMENT_THEORY = SGP/SGP4

EPOCH          = 2026-01-19T12:37:15.759840
MEAN_MOTION    = 13.87274802
ECCENTRICITY   = .00025379
INCLINATION    = 50.0067
RA_OF_ASC_NODE = 298.0251
ARG_OF_PERICENTER = 357.6179
MEAN_ANOMALY   = 2.4706

EPHEMERIS_TYPE = 0
CLASSIFICATION_TYPE = U
NORAD_CAT_ID   = 67240
ELEMENT_SET_NO = 999
REV_AT_EPOCH   = 342
BSTAR          = .12211287E-3
MEAN_MOTION_DOT = -.1E-7
MEAN_MOTION_DDOT = 0

CCSDS_OMM_VERS = 2.0
CREATION_DATE  = 
ORIGINATOR     = 

OBJECT_NAME    = HULIANWANG DIGUI-133
OBJECT_ID      = 2025-311F
CENTER_NAME    = EARTH
REF_FRAME      = TEME
TIME_SYSTEM    = UTC
MEAN_ELEMENT_THEORY = SGP/SGP4

EPOCH          = 2026-01-19T00:27:40.122432
MEAN_MOTION    = 13.87706822
ECCENTRICITY   = .00016546
INCLINATION    = 50.0120
RA_OF_ASC_NODE = 300.0209
ARG_OF_PERICENTER = 358.6211
MEAN_ANOMALY   = 1.4682

EPHEMERIS_TYPE = 0
CLASSIFICATION_TYPE = U
NORAD_CAT_ID   = 67241
ELEMENT_SET_NO = 999
REV_AT_EPOCH   = 335
BSTAR          = .11134555E-3
MEAN_MOTION_DOT = -.13E-6
MEAN_MOTION_DDOT = 0

CCSDS_OMM_VERS = 2.0
CREATION_DATE  = 
ORIGINATOR     = 

OBJECT_NAME    = HULIANWANG DIGUI-134
OBJECT_ID      = 2025-311G
CENTER_NAME    = EARTH
REF_FRAME      = TEME
TIME_SYSTEM    = UTC
MEAN_ELEMENT_THEORY = SGP/SGP4

EPOCH          = 2026-01-19T19:30:47.318688
MEAN_MOTION    = 13.86837554
ECCENTRICITY   = .00005799
INCLINATION    = 50.0123
RA_OF_ASC_NODE = 296.8687
ARG_OF_PERICENTER = 268.9105
MEAN_ANOMALY   = 91.1726

EPHEMERIS_TYPE = 0
CLASSIFICATION_TYPE = U
NORAD_CAT_ID   = 67242
ELEMENT_SET_NO = 999
REV_AT_EPOCH   = 346
BSTAR          = .13742569E-3
MEAN_MOTION_DOT = .16E-6
MEAN_MOTION_DDOT = 0

CCSDS_OMM_VERS = 2.0
CREATION_DATE  = 
ORIGINATOR     = 

OBJECT_NAME    = HULIANWANG DIGUI-135
OBJECT_ID      = 2025-311H
CENTER_NAME    = EARTH
REF_FRAME      = TEME
TIME_SYSTEM    = UTC
MEAN_ELEMENT_THEORY = SGP/SGP4

EPOCH          = 2026-01-19T21:18:51.405408
MEAN_MOTION    = 13.86569610
ECCENTRICITY   = .00006584
INCLINATION    = 50.0065
RA_OF_ASC_NODE = 296.5888
ARG_OF_PERICENTER = 9.9203
MEAN_ANOMALY   = 350.1707

EPHEMERIS_TYPE = 0
CLASSIFICATION_TYPE = U
NORAD_CAT_ID   = 67243
ELEMENT_SET_NO = 999
REV_AT_EPOCH   = 347
BSTAR          = .13091426E-3
MEAN_MOTION_DOT = .8E-7
MEAN_MOTION_DDOT = 0

