SPACEMOBILE-006         
1 67232U 25309A   26020.11704681 -.00000815  00000+0 -24112-4 0  9996
2 67232  52.9969 289.4295 0012234  43.9483 316.2481 15.17747762  4101
LVM3 R/B                
1 67233U 25309B   26020.93944391  .00017050  00000+0  79803-3 0  9994
2 67233  52.9300 285.0263 0012109  70.4941 289.7359 15.19798495  4236
2025-310A               
1 67234U 25310A   26020.96092676  .00000110  00000+0  23373-4 0  9991
2 67234  97.9664  30.3804 0002375 162.4580 197.6712 14.75704675  3918
SL-4 R/B                
1 67235U 25310B   26020.58180595  .00445183  25048-5  85567-3 0  9998
2 67235  97.9588  33.0565 0252159 342.1536  17.0980 15.62857820  4048
HULIANWANG DIGUI-128    
1 67236U 25311A   26019.95125797  .00000014  00000+0  13469-3 0  9999
2 67236  50.0140 296.2734 0000252 253.4810 106.6060 13.87303514  3480
HULIANWANG DIGUI-129    
1 67237U 25311B   26018.72886334 -.00000022  00000+0  10227-3 0  9994
2 67237  50.0108 301.1467 0003027   4.8681 355.2246 13.88330463  3315
HULIANWANG DIGUI-130    
1 67238U 25311C   26019.96223561  .00000019  00000+0  14106-3 0  9994
2 67238  50.0087 296.3440 0002310 353.9164   6.1704 13.86351500  3488
HULIANWANG DIGUI-131    
1 67239U 25311D   26019.89368493  .00000008  00000+0  13166-3 0  9994
2 67239  50.0098 296.6013 0004937 198.8063 161.2652 13.86313961  3474
HULIANWANG DIGUI-132    
1 67240U 25311E   26019.52587685 -.00000001  00000+0  12211-3 0  9996
2 67240  50.0067 298.0251 0002537 357.6179   2.4706 13.87274802  3421
HULIANWANG DIGUI-133    
1 67241U 25311F   26019.01921438 -.00000013  00000+0  11135-3 0  9996
2 67241  50.0120 300.0209 0001654 358.6211   1.4682 13.87706822  3352
HULIANWANG DIGUI-134    
1 67242U 25311G   26019.81304767  .00000016  00000+0  13743-3 0  9994
2 67242  50.0123 296.8687 0000579 268.9105  91.1726 13.86837554  3461
HULIANWANG DIGUI-135    
1 67243U 25311H   26019.88809497  .00000008  00000+0  13091-3 0  9999
2 67243  50.0065 296.5888 0000658   9.9203 350.1707 13.86569610  3470
